1 37673U 11024A   12167.44522015 -.00000049  00000-0  00000+0 0  9997
2 37673 098.0092 174.1287 0001175 086.9256 273.2096 14.72308901 54560
1 37673U 11024A   12167.92094958 -.00000049 +00000-0 +00000-0 0  9991
2 37673 098.0097 174.5979 0001139 091.9252 268.2089 14.72309290054635
1 37673U 11024A   12168.66852455 -.00000049  00000-0  00000+0 0  9996
2 37673 098.0097 175.3351 0001145 086.8152 273.3219 14.72310285 54747
1 37673U 11024A   12168.94036970 -.00000049 +00000-0 +00000-0 0  9994
2 37673 098.0097 175.6028 0001122 086.6663 273.4685 14.72310373054781
1 37673U 11024A   12170.02775060 -.00000049  00000-0  00000+0 0  9995
2 37673 098.0090 176.6742 0001167 088.5994 271.5375 14.72311650 54947
1 37673U 11024A   12170.57144100 -.00000049 +00000-0 +00000-0 0  9991
2 37673 098.0089 177.2100 0001164 093.9501 266.1885 14.72312117055026
1 37673U 11024A   12171.52289811 -.00000049  00000-0  00000+0 0  9995
2 37673 098.0090 178.1479 0001175 091.3416 268.7974 14.72313093 55162
1 37673U 11024A   12171.72678115 -.00000049 +00000-0 +00000-0 0  9997
2 37673 098.0091 178.3489 0001160 090.1773 269.9570 14.72313107055197
1 37673U 11024A   12172.67823796 -.00000049  00000-0  00000+0 0  9998
2 37673 098.0089 179.2867 0001165 087.0749 273.0601 14.72313925 55332
1 37673U 11024A   12173.69765520 -.00000049  00000-0  00000+0 0  9991
2 37673 098.0085 180.2912 0001181 089.0573 271.0767 14.72314825 55483
1 37673U 11024A   12174.71707261 -.00000049  00000-0  00000+0 0  9993
2 37673 098.0092 181.2964 0001208 088.8703 271.2640 14.72315374 55630
1 37673U 11024A   12175.60056712 -.00000049 +00000-0 +00000-0 0  9991
2 37673 098.0092 182.1674 0001196 085.4988 274.6357 14.72315959055767
1 37673U 11024A   12176.00833420 -.00000049  00000-0  00000+0 0  9994
2 37673 098.0091 182.5691 0001191 081.0279 279.1086 14.72316238 55826
1 37673U 11024A   12176.68794476 -.00000049 +00000-0 +00000-0 0  9996
2 37673 098.0096 183.2390 0001191 087.0759 273.0579 14.72316474055927
1 37673U 11024A   12177.02775067 -.00000049  00000-0  00000+0 0  9999
2 37673 098.0094 183.5738 0001195 085.6372 274.4994 14.72316759 55970
1 37673U 11024A   12177.70736124 -.00000049 +00000-0 +00000-0 0  9996
2 37673 098.0096 184.2436 0001210 091.6539 268.4800 14.72316869056078
1 37673U 11024A   12178.52289463 -.00000049  00000-0  00000+0 0  9995
2 37673 098.0096 185.0475 0001203 090.2330 269.9042 14.72317346 56194
1 37673U 11024A   12178.65881636 -.00000049 +00000-0 +00000-0 0  9990
2 37673 098.0095 185.1814 0001218 091.0488 269.0854 14.72317278056219
1 37673U 11024A   12179.67823229 -.00000049  00000-0  00000+0 0  9996
2 37673 098.0094 186.1858 0001197 089.9377 270.1965 14.72317651 56363
1 37673U 11024A   12180.76560914 -.00000049 +00000-0 +00000-0 0  9998
2 37673 098.0095 187.2575 0001246 092.3747 267.7595 14.72318031056528
1 37673U 11024A   12181.03745364 -.00000049  00000-0  00000+0 0  9992
2 37673 098.0094 187.5255 0001219 091.3822 268.7549 14.72318277 56564
1 37673U 11024A   12181.78502452 -.00000049 +00000-0 +00000-0 0  9994
2 37673 098.0098 188.2624 0001228 092.5327 267.6013 14.72318403056676
